CUTE-1 (CO-55)          
1 27844U 03031E   25167.00360062  .00000294  00000+0  14689-3 0  9995
2 27844  98.6753 175.1940 0009951 161.7533 198.4005 14.24001462139556
CUBESAT XI-IV (CO-57)   
1 27848U 03031J   25167.44708767  .00000246  00000+0  12785-3 0  9997
2 27848  98.6780 175.6321 0009521 177.3915 182.7315 14.23335667139341
CUBESAT XI-V            
1 28895U 05043F   25167.66033194  .00001363  00000+0  23023-3 0  9992
2 28895  98.2508 312.0990 0013207 285.7161  74.2588 14.71036680 47981
CUTE-1.7+APD II (CO-65) 
1 32785U 08021C   25167.85483472  .00004036  00000+0  29247-3 0  9997
2 32785  97.7863 139.0715 0009726 177.1141 183.0142 15.04500428930177
CANX-2                  
1 32790U 08021H   25167.36558416  .00002325  00000+0  18302-3 0  9999
2 32790  97.8224 137.1718 0012201 175.1740 184.9604 15.01774162929831
SEEDS II (CO-66)        
1 32791U 08021J   25168.21438688  .00009883  00000+0  47698-3 0  9999
2 32791  97.7278 148.4257 0005371 125.4837 234.6898 15.18876758931730
SWISSCUBE               
1 35932U 09051B   25167.27215069  .00001017  00000+0  21573-3 0  9999
2 35932  98.4299  63.6325 0005568 273.3520  86.7043 14.61353373835691
BEESAT-1                
1 35933U 09051C   25167.45470539  .00000830  00000+0  18023-3 0  9993
2 35933  98.4230  64.1605 0004130 290.9359  69.1399 14.60765196835770
ITUPSAT1                
1 35935U 09051E   25168.16280579  .00000771  00000+0  17237-3 0  9997
2 35935  98.4323  64.4150 0006435 296.2509  63.8029 14.59563034835506
TISAT 1                 
1 36799U 10035E   25167.51939857  .00009725  00000+0  49852-3 0  9994
2 36799  98.0580  82.0062 0005035  80.5282 279.6518 15.16788468812027
AEROCUBE 4.5A           
1 38767U 12048K   25167.83124022  .00018768  00000+0  49364-3 0  9997
2 38767  64.6458 201.2124 0099096 274.0396  84.9414 15.33737711315931
STRAND-1                
1 39090U 13009E   25167.77844298  .00000277  00000+0  10836-3 0  9990
2 39090  98.3827 352.2855 0007621 239.2071 120.8366 14.36823781644586
BRITE-AUSTRIA           
1 39091U 13009F   25167.08989749  .00000164  00000+0  70538-4 0  9997
2 39091  98.3884 350.8677 0009056 251.2660 108.7544 14.36313595644498
NEE-01 PEGASO           
1 39151U 13018B   25168.16835486  .00002631  00000+0  27272-3 0  9999
2 39151  98.0743 297.1876 0011950 286.2170  73.7732 14.90868549656273
POPACS 1                
1 39268U 13055D   25168.18827401  .00054350  20684-7  47187-3 0  9999
2 39268  80.9700  77.5379 0232912 317.9510  40.4053 15.41351044617274
POPACS 2                
1 39269U 13055E   25167.83449165  .00009700  00000+0  19181-3 0  9992
2 39269  80.9951 197.5384 0474502 274.2887  80.4256 14.76057314609042
POPACS 3                
1 39270U 13055F   25167.54302916  .00010515  00000+0  26240-3 0  9994
2 39270  81.0044 263.1728 0584180  97.2024 269.5925 14.48148350585496
ZACUBE-1 (TSHEPISOSAT)  
1 39417U 13066B   25167.60609867  .00004167  00000+0  36268-3 0  9998
2 39417  97.7801 124.5814 0044774  30.3253 330.0545 14.96714111625968
WNISAT-1                
1 39423U 13066H   25167.39176109  .00000479  00000+0  97815-4 0  9997
2 39423  97.6783 338.7576 0164206 304.2475  54.3263 14.57112171613447
TRITON-1                
1 39427U 13066M   25168.18313835  .00002760  00000+0  35298-3 0  9999
2 39427  97.8364  81.7638 0094020 342.8159  16.9876 14.79119517620273
GOMX-1                  
1 39430U 13066Q   25168.12194727  .00001789  00000+0  28331-3 0  9994
2 39430  97.6829  26.3237 0132651 167.6766 192.7739 14.67664610616510
CUBEBUG-2 (LO-74)       
1 39440U 13066AA  25167.32621389  .00003140  00000+0  31994-3 0  9997
2 39440  97.8501 111.8397 0062584 156.3861 204.0252 14.89973670623647
NEE-02 KRYSAOR          
1 39441U 13066AB  25167.32620268  .00001609  00000+0  19024-3 0  9991
2 39441  97.8558 105.5845 0068588 186.8880 173.1399 14.84389031621886
FUNCUBE-1 (AO-73)       
1 39444U 13066AE  25167.34039743  .00005029  00000+0  37692-3 0  9999
2 39444  97.7838 129.2818 0042340   7.5324 352.6527 15.02429953624601
UWE-3                   
1 39446U 13066AG  25168.11038054  .00002878  00000+0  27487-3 0  9991
2 39446  97.8243 118.9916 0054756  93.9608 266.7874 14.92952449623626
BRITE-CA1 (TORONTO)     
1 40020U 14033L   25167.91562682  .00000695  00000+0  11426-3 0  9993
2 40020  97.9270 299.9386 0080161   7.1857 353.0479 14.71639559588587
DUCHIFAT-1              
1 40021U 14033M   25167.26719259  .00014759  00000+0  52897-3 0  9999
2 40021  98.0943 182.1861 0006669 296.6006  63.4548 15.28834224599344
NANOSATC-BR1            
1 40024U 14033Q   25167.72243053  .00009658  00000+0  47131-3 0  9994
2 40024  98.0906 166.1434 0005250  32.5471 327.6084 15.18517725598298
QB50P1                  
1 40025U 14033R   25167.69653151  .00006823  00000+0  41677-3 0  9995
2 40025  98.0832 150.6841 0011360  39.3308 320.8743 15.10594657597714
QB50P2                  
1 40032U 14033Y   25167.34319831  .00005355  00000+0  34825-3 0  9995
2 40032  98.0436 139.1343 0008096 348.8706  11.2340 15.08429830597398
PERSEUS-M2              
1 40037U 14033AD  25168.13972288  .00001383  00000+0  13596-3 0  9998
2 40037  97.9559 107.7898 0013786  71.2854 288.9860 14.93759950596757
PERSEUS-M1              
1 40039U 14033AF  25167.59011920  .00001478  00000+0  14496-3 0  9991
2 40039  97.9296 102.1649 0013573  71.9015 288.3682 14.93744683596539
POLYITAN-1              
1 40042U 14033AJ  25167.41768604  .00009042  00000+0  43786-3 0  9993
2 40042  98.1029 158.2141 0009011 348.3234  11.7788 15.18787437597825
TIGRISAT                
1 40043U 14033AK  25167.68652662  .00001952  00000+0  24142-3 0  9996
2 40043  97.7367 322.7385 0051213 191.1558 168.8525 14.82984795591416
AEROCUBE 6A             
1 40045U 14033AM  25167.70542193  .00004425  00000+0  42995-3 0  9992
2 40045  97.6940 335.8210 0043764 154.6445 205.6935 14.92379474592001
AEROCUBE 6B             
1 40046U 14033AN  25167.76139838  .00005363  00000+0  50497-3 0  9995
2 40046  97.6924 335.0151 0042585 147.6766 212.7076 14.93566466592104
CANX-4                  
1 40055U 14034C   25168.05327217  .00000948  00000+0  13195-3 0  9997
2 40055  98.3618  24.0869 0014297 102.1747 258.1066 14.80236980590525
CANX-5                  
1 40056U 14034D   25167.85281281  .00000964  00000+0  13403-3 0  9995
2 40056  98.3620  23.9007 0014291 102.9574 257.3233 14.80250253581279
UKUBE-1                 
1 40074U 14037F   25168.14306761  .00005826  00000+0  40930-3 0  9999
2 40074  98.3942 131.1108 0001385  35.1134 325.0181 15.05567180593488
BRITE-PL2 (HEWELIUSZ)   
1 40119U 14049B   25167.52547361  .00001499  00000+0  15115-3 0  9995
2 40119  97.8913 272.7757 0013348 238.4029 121.5888 14.92594519586863
AEROCUBE 5C             
1 40965U 15058B   25168.13335458  .00003883  00000+0  33887-3 0  9990
2 40965  64.7693 315.8813 0163680 198.0625 161.4631 14.88585337311251
AEROCUBE 7              
1 40966U 15058C   25167.64667385  .00005232  00000+0  42272-3 0  9991
2 40966  64.7653 306.4849 0155480 198.1845 161.3673 14.91868718311354
FOX-1A (AO-85)          
1 40967U 15058D   25167.45455143  .00003535  00000+0  31752-3 0  9993
2 40967  64.7769 333.1485 0160124 193.2675 166.4204 14.88073887 59091
SINOD-D 1               
1 40968U 15058E   25167.45241029  .00004955  00000+0  40742-3 0  9996
2 40968  64.7772 320.8389 0149809 192.2915 167.4530 14.91903789 62022
SNAP-3 ALICE            
1 40970U 15058G   25168.16243447  .00021277  00000+0  86833-3 0  9991
2 40970  64.7651 240.2957 0083964 193.5895 166.2973 15.21211221 60828
LMRST-SAT               
1 40971U 15058H   25167.93219958  .00003464  00000+0  31148-3 0  9993
2 40971  64.7771 327.4096 0162380 194.5812 165.0588 14.87824806 59168
SNAP-3 EDDIE            
1 40972U 15058J   25167.48555048  .00020300  00000+0  80908-3 0  9993
2 40972  64.7570 235.0388 0089182 195.6884 164.1478 15.21603427 62832
PROPCUBE 3              
1 40973U 15058K   25166.84078549  .00004957  00000+0  41128-3 0  9990
2 40973  64.7706 314.2062 0157129 196.8439 162.7424 14.90787068 60123
BISONSAT                
1 40974U 15058L   25166.78027325  .00011067  00000+0  65183-3 0  9997
2 40974  64.7633 268.9334 0119622 195.5164 164.2279 15.06095975 60253
SNAP-3 JIMI             
1 40975U 15058M   25167.61400111  .00006967  00000+0  50592-3 0  9990
2 40975  64.7673 291.7088 0141646 195.8804 163.7849 14.96882253 59406
PROPCUBE 1 (FLORA)      
1 40976U 15058N   25167.89778907  .00003185  00000+0  29823-3 0  9994
2 40976  64.7761 345.1227 0161975 196.3151 163.2712 14.86512024 61910
SINOD-D 3               
1 40977U 15058P   25167.44976375  .00004235  00000+0  36419-3 0  9991
2 40977  64.7743 334.7274 0151933 195.8168 163.8173 14.90258585 60181
HORYU-4                 
1 41340U 16012D   25168.01023914  .00019348  00000+0  51091-3 0  9997
2 41340  30.9966  81.9583 0005674 139.5346 220.5722 15.37188006513934
RAVAN                   
1 41849U 16067B   25168.16524097  .00011809  00000+0  40289-3 0  9996
2 41849  98.0436  17.7976 0008621 201.3394 158.7486 15.30487124471505
CELTEE 1                
1 41850U 16067C   25167.10553186  .00004421  00000+0  24291-3 0  9999
2 41850  98.1060   4.1078 0002275  74.0555 286.0925 15.14683877470379
OPTICUBE 04             
1 41851U 16067D   25167.06005844  .00002520  00000+0  17130-3 0  9990
2 41851  98.0933 355.1869 0015032 274.2827  85.6681 15.07285319469973
AEROCUBE 8D             
1 41852U 16067E   25168.10758080  .00005625  00000+0  28264-3 0  9993
2 41852  98.1098   6.3867 0003013 329.4772  30.6284 15.17718578470574
AEROCUBE 8C             
1 41853U 16067F   25168.11271907  .00005462  00000+0  27354-3 0  9991
2 41853  98.0944   4.1717 0005030 229.8332 130.2460 15.17845769470565
PROMETHEUS 2-1          
1 41854U 16067G   25168.16544043  .00038150  00000+0  70187-3 0  9993
2 41854  98.0753  22.4009 0005884 207.1772 152.9170 15.49089784471589
